STARLINK-36772          
1 67721U 26026A   26070.25002315 -.01890052  00000+0 -51880-1 0  9991
2 67721  97.2845 124.7709 0001765  75.7028 176.6925 15.40567585  5566
STARLINK-36796          
1 67722U 26026B   26070.25002315 -.01865781  00000+0 -52809-1 0  9995
2 67722  97.2847 124.7613 0001951  72.5913 156.4214 15.39595814  5569
STARLINK-36369          
1 67723U 26026C   26070.25002315 -.01907497  00000+0 -48421-1 0  9992
2 67723  97.2848 124.7745 0001779  80.4104 187.8308 15.42934061  5562
STARLINK-36752          
1 67724U 26026D   26070.25002315 -.01874280  00000+0 -50905-1 0  9996
2 67724  97.2843 124.7879 0001634  81.2969 216.7499 15.40859485  5561
STARLINK-36754          
1 67725U 26026E   26070.25002315 -.01900743  00000+0 -49958-1 0  9997
2 67725  97.2850 124.7627 0001693  81.6930 159.2560 15.41888106  5561
STARLINK-36755          
1 67726U 26026F   26070.14860730  .00097044  00000+0  17642-2 0  9993
2 67726  97.2846 124.6415 0001664  85.7120 274.4321 15.49187679  4340
STARLINK-36741          
1 67727U 26026G   26070.25002315 -.01925900  00000+0 -47387-1 0  9995
2 67727  97.2846 124.7577 0001845  67.8808 160.6818 15.43886574  5562
STARLINK-36757          
1 67728U 26026H   26070.25002315 -.01922061  00000+0 -50235-1 0  9997
2 67728  97.2840 124.8085 0001610  73.9517 272.6662 15.42094350  5560
STARLINK-36751          
1 67729U 26026J   26070.25002315 -.01913565  00000+0 -49948-1 0  9996
2 67729  97.2850 124.8209 0001454  82.7648 293.4382 15.42119530  5567
STARLINK-36747          
1 67730U 26026K   26070.25002315 -.01918714  00000+0 -50294-1 0  9995
2 67730  97.2842 124.8158 0001411  85.0312 279.2009 15.42003428  5566
STARLINK-36315          
1 67731U 26026L   26070.25002315 -.01916294  00000+0 -49445-1 0  9993
2 67731  97.2846 124.8261 0001229  93.1992 295.3491 15.42469820  5563
STARLINK-36260          
1 67732U 26026M   26070.25002315 -.01911171  00000+0 -49125-1 0  9998
2 67732  97.2842 124.8335 0001342  78.5726 327.5416 15.42573219  5563
