CCSDS_OMM_VERS = 2.0
CREATION_DATE  = 
ORIGINATOR     = 

OBJECT_NAME    = STARLINK-36772
OBJECT_ID      = 2026-026A
CENTER_NAME    = EARTH
REF_FRAME      = TEME
TIME_SYSTEM    = UTC
MEAN_ELEMENT_THEORY = SGP/SGP4

EPOCH          = 2026-03-11T06:00:02.000160
MEAN_MOTION    = 15.40567585
ECCENTRICITY   = .00017653
INCLINATION    = 97.2845
RA_OF_ASC_NODE = 124.7709
ARG_OF_PERICENTER = 75.7028
MEAN_ANOMALY   = 176.6925

EPHEMERIS_TYPE = 0
CLASSIFICATION_TYPE = U
NORAD_CAT_ID   = 67721
ELEMENT_SET_NO = 999
REV_AT_EPOCH   = 556
BSTAR          = -.5188049E-1
MEAN_MOTION_DOT = -.1890052E-1
MEAN_MOTION_DDOT = 0

CCSDS_OMM_VERS = 2.0
CREATION_DATE  = 
ORIGINATOR     = 

OBJECT_NAME    = STARLINK-36796
OBJECT_ID      = 2026-026B
CENTER_NAME    = EARTH
REF_FRAME      = TEME
TIME_SYSTEM    = UTC
MEAN_ELEMENT_THEORY = SGP/SGP4

EPOCH          = 2026-03-11T06:00:02.000160
MEAN_MOTION    = 15.39595814
ECCENTRICITY   = .00019515
INCLINATION    = 97.2847
RA_OF_ASC_NODE = 124.7613
ARG_OF_PERICENTER = 72.5913
MEAN_ANOMALY   = 156.4214

EPHEMERIS_TYPE = 0
CLASSIFICATION_TYPE = U
NORAD_CAT_ID   = 67722
ELEMENT_SET_NO = 999
REV_AT_EPOCH   = 556
BSTAR          = -.52809218E-1
MEAN_MOTION_DOT = -.1865781E-1
MEAN_MOTION_DDOT = 0

CCSDS_OMM_VERS = 2.0
CREATION_DATE  = 
ORIGINATOR     = 

OBJECT_NAME    = STARLINK-36369
OBJECT_ID      = 2026-026C
CENTER_NAME    = EARTH
REF_FRAME      = TEME
TIME_SYSTEM    = UTC
MEAN_ELEMENT_THEORY = SGP/SGP4

EPOCH          = 2026-03-11T06:00:02.000160
MEAN_MOTION    = 15.42934061
ECCENTRICITY   = .00017796
INCLINATION    = 97.2848
RA_OF_ASC_NODE = 124.7745
ARG_OF_PERICENTER = 80.4104
MEAN_ANOMALY   = 187.8308

EPHEMERIS_TYPE = 0
CLASSIFICATION_TYPE = U
NORAD_CAT_ID   = 67723
ELEMENT_SET_NO = 999
REV_AT_EPOCH   = 556
BSTAR          = -.48420881E-1
MEAN_MOTION_DOT = -.1907497E-1
MEAN_MOTION_DDOT = 0

CCSDS_OMM_VERS = 2.0
CREATION_DATE  = 
ORIGINATOR     = 

OBJECT_NAME    = STARLINK-36752
OBJECT_ID      = 2026-026D
CENTER_NAME    = EARTH
REF_FRAME      = TEME
TIME_SYSTEM    = UTC
MEAN_ELEMENT_THEORY = SGP/SGP4

EPOCH          = 2026-03-11T06:00:02.000160
MEAN_MOTION    = 15.40859485
ECCENTRICITY   = .00016343
INCLINATION    = 97.2843
RA_OF_ASC_NODE = 124.7879
ARG_OF_PERICENTER = 81.2969
MEAN_ANOMALY   = 216.7499

EPHEMERIS_TYPE = 0
CLASSIFICATION_TYPE = U
NORAD_CAT_ID   = 67724
ELEMENT_SET_NO = 999
REV_AT_EPOCH   = 556
BSTAR          = -.50904919E-1
MEAN_MOTION_DOT = -.187428E-1
MEAN_MOTION_DDOT = 0

CCSDS_OMM_VERS = 2.0
CREATION_DATE  = 
ORIGINATOR     = 

OBJECT_NAME    = STARLINK-36754
OBJECT_ID      = 2026-026E
CENTER_NAME    = EARTH
REF_FRAME      = TEME
TIME_SYSTEM    = UTC
MEAN_ELEMENT_THEORY = SGP/SGP4

EPOCH          = 2026-03-11T06:00:02.000160
MEAN_MOTION    = 15.41888106
ECCENTRICITY   = .00016938
INCLINATION    = 97.2850
RA_OF_ASC_NODE = 124.7627
ARG_OF_PERICENTER = 81.6930
MEAN_ANOMALY   = 159.2560

EPHEMERIS_TYPE = 0
CLASSIFICATION_TYPE = U
NORAD_CAT_ID   = 67725
ELEMENT_SET_NO = 999
REV_AT_EPOCH   = 556
BSTAR          = -.49958177E-1
MEAN_MOTION_DOT = -.1900743E-1
MEAN_MOTION_DDOT = 0

CCSDS_OMM_VERS = 2.0
CREATION_DATE  = 
ORIGINATOR     = 

OBJECT_NAME    = STARLINK-36755
OBJECT_ID      = 2026-026F
CENTER_NAME    = EARTH
REF_FRAME      = TEME
TIME_SYSTEM    = UTC
MEAN_ELEMENT_THEORY = SGP/SGP4

EPOCH          = 2026-03-11T03:33:59.670720
MEAN_MOTION    = 15.49187679
ECCENTRICITY   = .00016648
INCLINATION    = 97.2846
RA_OF_ASC_NODE = 124.6415
ARG_OF_PERICENTER = 85.7120
MEAN_ANOMALY   = 274.4321

EPHEMERIS_TYPE = 0
CLASSIFICATION_TYPE = U
NORAD_CAT_ID   = 67726
ELEMENT_SET_NO = 999
REV_AT_EPOCH   = 434
BSTAR          = .17641533E-2
MEAN_MOTION_DOT = .97044E-3
MEAN_MOTION_DDOT = 0

CCSDS_OMM_VERS = 2.0
CREATION_DATE  = 
ORIGINATOR     = 

OBJECT_NAME    = STARLINK-36741
OBJECT_ID      = 2026-026G
CENTER_NAME    = EARTH
REF_FRAME      = TEME
TIME_SYSTEM    = UTC
MEAN_ELEMENT_THEORY = SGP/SGP4

EPOCH          = 2026-03-11T06:00:02.000160
MEAN_MOTION    = 15.43886574
ECCENTRICITY   = .00018457
INCLINATION    = 97.2846
RA_OF_ASC_NODE = 124.7577
ARG_OF_PERICENTER = 67.8808
MEAN_ANOMALY   = 160.6818

EPHEMERIS_TYPE = 0
CLASSIFICATION_TYPE = U
NORAD_CAT_ID   = 67727
ELEMENT_SET_NO = 999
REV_AT_EPOCH   = 556
BSTAR          = -.4738684E-1
MEAN_MOTION_DOT = -.19259E-1
MEAN_MOTION_DDOT = 0

CCSDS_OMM_VERS = 2.0
CREATION_DATE  = 
ORIGINATOR     = 

OBJECT_NAME    = STARLINK-36757
OBJECT_ID      = 2026-026H
CENTER_NAME    = EARTH
REF_FRAME      = TEME
TIME_SYSTEM    = UTC
MEAN_ELEMENT_THEORY = SGP/SGP4

EPOCH          = 2026-03-11T06:00:02.000160
MEAN_MOTION    = 15.42094350
ECCENTRICITY   = .00016108
INCLINATION    = 97.2840
RA_OF_ASC_NODE = 124.8085
ARG_OF_PERICENTER = 73.9517
MEAN_ANOMALY   = 272.6662

EPHEMERIS_TYPE = 0
CLASSIFICATION_TYPE = U
NORAD_CAT_ID   = 67728
ELEMENT_SET_NO = 999
REV_AT_EPOCH   = 556
BSTAR          = -.50235115E-1
MEAN_MOTION_DOT = -.1922061E-1
MEAN_MOTION_DDOT = 0

CCSDS_OMM_VERS = 2.0
CREATION_DATE  = 
ORIGINATOR     = 

OBJECT_NAME    = STARLINK-36751
OBJECT_ID      = 2026-026J
CENTER_NAME    = EARTH
REF_FRAME      = TEME
TIME_SYSTEM    = UTC
MEAN_ELEMENT_THEORY = SGP/SGP4

EPOCH          = 2026-03-11T06:00:02.000160
MEAN_MOTION    = 15.42119530
ECCENTRICITY   = .00014549
INCLINATION    = 97.2850
RA_OF_ASC_NODE = 124.8209
ARG_OF_PERICENTER = 82.7648
MEAN_ANOMALY   = 293.4382

EPHEMERIS_TYPE = 0
CLASSIFICATION_TYPE = U
NORAD_CAT_ID   = 67729
ELEMENT_SET_NO = 999
REV_AT_EPOCH   = 556
BSTAR          = -.49947869E-1
MEAN_MOTION_DOT = -.1913565E-1
MEAN_MOTION_DDOT = 0

CCSDS_OMM_VERS = 2.0
CREATION_DATE  = 
ORIGINATOR     = 

OBJECT_NAME    = STARLINK-36747
OBJECT_ID      = 2026-026K
CENTER_NAME    = EARTH
REF_FRAME      = TEME
TIME_SYSTEM    = UTC
MEAN_ELEMENT_THEORY = SGP/SGP4

EPOCH          = 2026-03-11T06:00:02.000160
MEAN_MOTION    = 15.42003428
ECCENTRICITY   = .0001411
INCLINATION    = 97.2842
RA_OF_ASC_NODE = 124.8158
ARG_OF_PERICENTER = 85.0312
MEAN_ANOMALY   = 279.2009

EPHEMERIS_TYPE = 0
CLASSIFICATION_TYPE = U
NORAD_CAT_ID   = 67730
ELEMENT_SET_NO = 999
REV_AT_EPOCH   = 556
BSTAR          = -.50293796E-1
MEAN_MOTION_DOT = -.1918714E-1
MEAN_MOTION_DDOT = 0

CCSDS_OMM_VERS = 2.0
CREATION_DATE  = 
ORIGINATOR     = 

OBJECT_NAME    = STARLINK-36315
OBJECT_ID      = 2026-026L
CENTER_NAME    = EARTH
REF_FRAME      = TEME
TIME_SYSTEM    = UTC
MEAN_ELEMENT_THEORY = SGP/SGP4

EPOCH          = 2026-03-11T06:00:02.000160
MEAN_MOTION    = 15.42469820
ECCENTRICITY   = .00012295
INCLINATION    = 97.2846
RA_OF_ASC_NODE = 124.8261
ARG_OF_PERICENTER = 93.1992
MEAN_ANOMALY   = 295.3491

EPHEMERIS_TYPE = 0
CLASSIFICATION_TYPE = U
NORAD_CAT_ID   = 67731
ELEMENT_SET_NO = 999
REV_AT_EPOCH   = 556
BSTAR          = -.4944497E-1
MEAN_MOTION_DOT = -.1916294E-1
MEAN_MOTION_DDOT = 0

CCSDS_OMM_VERS = 2.0
CREATION_DATE  = 
ORIGINATOR     = 

OBJECT_NAME    = STARLINK-36260
OBJECT_ID      = 2026-026M
CENTER_NAME    = EARTH
REF_FRAME      = TEME
TIME_SYSTEM    = UTC
MEAN_ELEMENT_THEORY = SGP/SGP4

EPOCH          = 2026-03-11T06:00:02.000160
MEAN_MOTION    = 15.42573219
ECCENTRICITY   = .00013421
INCLINATION    = 97.2842
RA_OF_ASC_NODE = 124.8335
ARG_OF_PERICENTER = 78.5726
MEAN_ANOMALY   = 327.5416

EPHEMERIS_TYPE = 0
CLASSIFICATION_TYPE = U
NORAD_CAT_ID   = 67732
ELEMENT_SET_NO = 999
REV_AT_EPOCH   = 556
BSTAR          = -.49124951E-1
MEAN_MOTION_DOT = -.1911171E-1
MEAN_MOTION_DDOT = 0

